ONEWEB-0063             
1 45448U 20020AA  26169.62358410 -.00000431  00000+0 -12529-2 0  9992
2 45448  87.8896  20.7822 0002112  85.8555 274.2815 13.11416865302882
ONEWEB-0019             
1 45449U 20020AB  26169.28084111  .00000387  00000+0  10567-2 0  9997
2 45449  87.8888  20.8372 0001723  90.2283 269.9043 13.11414964302680
ONEWEB-0094             
1 45450U 20020AC  26169.49384980  .00000011  00000+0 -41542-5 0  9994
2 45450  87.9140   5.5892 0001626  86.9318 273.1999 13.17647528306483
ONEWEB-0087             
1 45451U 20020AD  26169.63349124  .00000073  00000+0  16961-3 0  9994
2 45451  87.8905  20.7550 0001650  77.1869 282.9443 13.11419772302774
ONEWEB-0082             
1 45452U 20020AE  26169.63010550 -.00000053  00000+0 -18672-3 0  9994
2 45452  87.8896  20.7721 0001814  70.4577 289.6747 13.11420430302862
ONEWEB-0050             
1 45453U 20020AF  26169.68675049  .00001727  00000+0  17529-3 0  9997
2 45453  88.9297 233.0073 0002928  22.8796 337.2563 14.90385707340605
ONEWEB-0034             
1 45454U 20020AG  26169.28619936  .00000115  00000+0  28996-3 0  9997
2 45454  87.8892  20.8500 0001827  85.0414 275.0923 13.11414169302735
ONEWEB-0060             
1 45455U 20020AH  26169.62259932 -.00000538  00000+0 -15525-2 0  9996
2 45455  87.8888  20.7812 0001212  54.9989 305.1253 13.11417822302736
ONEWEB-0086             
1 45456U 20020AJ  26169.60127918 -.00000219  00000+0 -65371-3 0  9994
2 45456  87.8893  20.7805 0001036  87.7322 272.3924 13.11414700302792
ONEWEB-0088             
1 45457U 20020AK  26169.12159896  .00000447  00000+0  12264-2 0  9995
2 45457  87.8902  20.8489 0002166  79.3221 280.8151 13.11417250302668
ONEWEB-0102             
1 47258U 20100A   26169.50623052  .00000180  00000+0  46484-3 0  9993
2 47258  87.8939 350.4127 0001626  98.6712 261.4601 13.12440866264908
ONEWEB-0109             
1 47259U 20100B   26169.51469826 -.00000128  00000+0 -38989-3 0  9997
2 47259  87.8949 350.3943 0001854  96.0457 264.0883 13.12441129264731
ONEWEB-0110             
1 47260U 20100C   26169.46556059 -.00000318  00000+0 -91793-3 0  9991
2 47260  87.8949 350.3887 0001574  90.7005 269.4304 13.12444562264897
ONEWEB-0111             
1 47261U 20100D   26169.49606808  .00000403  00000+0  10844-2 0  9993
2 47261  87.8949 350.4010 0001765  88.3781 271.7550 13.12441279264737
ONEWEB-0114             
1 47262U 20100E   26169.45033111 -.00001205  00000+0 -33867-2 0  9994
2 47262  87.8950 350.4080 0002119  94.7412 265.3958 13.12433106264688
ONEWEB-0117             
1 47263U 20100F   26169.51808633 -.00000207  00000+0 -61168-3 0  9998
2 47263  87.8947 350.3850 0001778  91.3434 268.7898 13.12442958264704
ONEWEB-0118             
1 47264U 20100G   26169.47573638  .00000109  00000+0  26866-3 0  9993
2 47264  87.8946 350.3963 0002145  91.0463 269.0911 13.12443729264894
ONEWEB-0119             
1 47265U 20100H   26169.04372954  .00000230  00000+0  60296-3 0  9995
2 47265  87.8938 350.4988 0001824  91.4274 268.7064 13.12442523264819
ONEWEB-0120             
1 47266U 20100J   26169.06757660 -.00000463  00000+0 -13229-2 0  9992
2 47266  87.8938 350.4951 0001873  97.0348 263.0994 13.12443781264848
ONEWEB-0121             
1 47267U 20100K   26168.97934227 -.00000152  00000+0 -45880-3 0  9992
2 47267  87.8949 350.4988 0001691  81.2470 278.8850 13.12442670264740
ONEWEB-0122             
1 47268U 20100L   26169.50708764  .00000168  00000+0  43164-3 0  9996
2 47268  87.8950 350.3985 0001728  96.0291 264.1035 13.12442014264728
ONEWEB-0123             
1 47269U 20100M   26169.04541859  .00000200  00000+0  52161-3 0  9990
2 47269  87.8937 350.4974 0001920  90.6163 269.5186 13.12443032264801
ONEWEB-0124             
1 47270U 20100N   26169.03525519  .00000457  00000+0  12347-2 0  9991
2 47270  87.8937 350.5026 0001772  87.5274 272.6058 13.12443809264686
ONEWEB-0125             
1 47271U 20100P   26169.47064257 -.00000308  00000+0 -89098-3 0  9992
2 47271  87.8948 350.3995 0001944  82.0976 278.0373 13.12443596264809
ONEWEB-0126             
1 47272U 20100Q   26169.03371204  .00000421  00000+0  11352-2 0  9999
2 47272  87.8942 350.5019 0001892  94.6920 265.4424 13.12442372264812
ONEWEB-0127             
1 47273U 20100R   26169.45708906 -.00000704  00000+0 -19931-2 0  9996
2 47273  87.8936 350.4165 0001946  96.7661 263.3689 13.12443593264896
ONEWEB-0128             
1 47274U 20100S   26169.02169928  .00000331  00000+0  88340-3 0  9990
2 47274  87.8935 350.5170 0001503  89.4617 270.6684 13.12443916264853
ONEWEB-0129             
1 47275U 20100T   26169.00136711 -.00000332  00000+0 -95778-3 0  9999
2 47275  87.8948 350.4950 0002459 116.7427 243.3954 13.12443926264787
ONEWEB-0130             
1 47276U 20100U   26169.48590575  .00000351  00000+0  94031-3 0  9994
2 47276  87.8947 350.3938 0001775  94.0374 266.0957 13.12443896264816
ONEWEB-0131             
1 47277U 20100V   26169.02510688  .00001213  00000+0  33350-2 0  9996
2 47277  87.8938 350.5035 0001729  90.3167 269.8160 13.12438474264795
