OBJECT_NAME,OBJECT_ID,EPOCH,MEAN_MOTION,ECCENTRICITY,INCLINATION,RA_OF_ASC_NODE,ARG_OF_PERICENTER,MEAN_ANOMALY,EPHEMERIS_TYPE,CLASSIFICATION_TYPE,NORAD_CAT_ID,ELEMENT_SET_NO,REV_AT_EPOCH,BSTAR,MEAN_MOTION_DOT,MEAN_MOTION_DDOT
ONEWEB-0063,2020-020AA,2026-06-18T14:57:57.666240,13.11416865,.0002112,87.8896,20.7822,85.8555,274.2815,0,U,45448,999,30288,-.12529E-2,-.431E-5,0
ONEWEB-0019,2020-020AB,2026-06-18T06:44:24.671904,13.11414964,.0001723,87.8888,20.8372,90.2283,269.9043,0,U,45449,999,30268,.10567E-2,.387E-5,0
ONEWEB-0094,2020-020AC,2026-06-18T11:51:08.622720,13.17647528,.0001626,87.9140,5.5892,86.9318,273.1999,0,U,45450,999,30648,-.41542E-5,.11E-6,0
ONEWEB-0087,2020-020AD,2026-06-18T15:12:13.643136,13.11419772,.000165,87.8905,20.7550,77.1869,282.9443,0,U,45451,999,30277,.16961E-3,.73E-6,0
ONEWEB-0082,2020-020AE,2026-06-18T15:07:21.115200,13.11420430,.0001814,87.8896,20.7721,70.4577,289.6747,0,U,45452,999,30286,-.18672E-3,-.53E-6,0
ONEWEB-0050,2020-020AF,2026-06-18T16:28:55.242336,14.90385707,.0002928,88.9297,233.0073,22.8796,337.2563,0,U,45453,999,34060,.17529E-3,.1727E-4,0
ONEWEB-0034,2020-020AG,2026-06-18T06:52:07.624704,13.11414169,.0001827,87.8892,20.8500,85.0414,275.0923,0,U,45454,999,30273,.28996E-3,.115E-5,0
ONEWEB-0060,2020-020AH,2026-06-18T14:56:32.581248,13.11417822,.0001212,87.8888,20.7812,54.9989,305.1253,0,U,45455,999,30273,-.15525E-2,-.538E-5,0
ONEWEB-0086,2020-020AJ,2026-06-18T14:25:50.521152,13.11414700,.0001036,87.8893,20.7805,87.7322,272.3924,0,U,45456,999,30279,-.65371E-3,-.219E-5,0
ONEWEB-0088,2020-020AK,2026-06-18T02:55:06.150144,13.11417250,.0002166,87.8902,20.8489,79.3221,280.8151,0,U,45457,999,30266,.12264E-2,.447E-5,0
ONEWEB-0102,2020-100A,2026-06-18T12:08:58.316928,13.12440866,.0001626,87.8939,350.4127,98.6712,261.4601,0,U,47258,999,26490,.46484E-3,.18E-5,0
ONEWEB-0109,2020-100B,2026-06-18T12:21:09.929664,13.12441129,.0001854,87.8949,350.3943,96.0457,264.0883,0,U,47259,999,26473,-.38989E-3,-.128E-5,0
ONEWEB-0110,2020-100C,2026-06-18T11:10:24.434976,13.12444562,.0001574,87.8949,350.3887,90.7005,269.4304,0,U,47260,999,26489,-.91793E-3,-.318E-5,0
ONEWEB-0111,2020-100D,2026-06-18T11:54:20.282112,13.12441279,.0001765,87.8949,350.4010,88.3781,271.7550,0,U,47261,999,26473,.10844E-2,.403E-5,0
ONEWEB-0114,2020-100E,2026-06-18T10:48:28.607904,13.12433106,.0002119,87.8950,350.4080,94.7412,265.3958,0,U,47262,999,26468,-.33867E-2,-.1205E-4,0
ONEWEB-0117,2020-100F,2026-06-18T12:26:02.658912,13.12442958,.0001778,87.8947,350.3850,91.3434,268.7898,0,U,47263,999,26470,-.61168E-3,-.207E-5,0
ONEWEB-0118,2020-100G,2026-06-18T11:25:03.623232,13.12443729,.0002145,87.8946,350.3963,91.0463,269.0911,0,U,47264,999,26489,.26866E-3,.109E-5,0
ONEWEB-0119,2020-100H,2026-06-18T01:02:58.232256,13.12442523,.00018244,87.8938,350.4988,91.4274,268.7064,0,U,47265,999,26481,.60295882E-3,.23E-5,0
ONEWEB-0120,2020-100J,2026-06-18T01:37:18.618240,13.12443781,.0001873,87.8938,350.4951,97.0348,263.0994,0,U,47266,999,26484,-.13229E-2,-.463E-5,0
ONEWEB-0121,2020-100K,2026-06-17T23:30:15.172128,13.12442670,.00016911,87.8949,350.4988,81.2470,278.8850,0,U,47267,999,26474,-.45880493E-3,-.152E-5,0
ONEWEB-0122,2020-100L,2026-06-18T12:10:12.372096,13.12442014,.0001728,87.8950,350.3985,96.0291,264.1035,0,U,47268,999,26472,.43164E-3,.168E-5,0
ONEWEB-0123,2020-100M,2026-06-18T01:05:24.166176,13.12443032,.00019207,87.8937,350.4974,90.6163,269.5186,0,U,47269,999,26480,.52160616E-3,.2E-5,0
ONEWEB-0124,2020-100N,2026-06-18T00:50:46.048416,13.12443809,.00017727,87.8937,350.5026,87.5274,272.6058,0,U,47270,999,26468,.12347435E-2,.457E-5,0
ONEWEB-0125,2020-100P,2026-06-18T11:17:43.518048,13.12443596,.0001944,87.8948,350.3995,82.0976,278.0373,0,U,47271,999,26480,-.89098E-3,-.308E-5,0
ONEWEB-0126,2020-100Q,2026-06-18T00:48:32.720256,13.12442372,.00018926,87.8942,350.5019,94.6920,265.4424,0,U,47272,999,26481,.11352121E-2,.421E-5,0
ONEWEB-0127,2020-100R,2026-06-18T10:58:12.494784,13.12443593,.0001946,87.8936,350.4165,96.7661,263.3689,0,U,47273,999,26489,-.19931E-2,-.704E-5,0
ONEWEB-0128,2020-100S,2026-06-18T00:31:14.817792,13.12443916,.00015037,87.8935,350.5170,89.4617,270.6684,0,U,47274,999,26485,.88339808E-3,.331E-5,0
ONEWEB-0129,2020-100T,2026-06-18T00:01:58.118304,13.12443926,.00024594,87.8948,350.4950,116.7427,243.3954,0,U,47275,999,26478,-.95777589E-3,-.332E-5,0
ONEWEB-0130,2020-100U,2026-06-18T11:39:42.256800,13.12443896,.0001775,87.8947,350.3938,94.0374,266.0957,0,U,47276,999,26481,.94031E-3,.351E-5,0
ONEWEB-0131,2020-100V,2026-06-18T00:36:09.234432,13.12438474,.00017296,87.8938,350.5035,90.3167,269.8160,0,U,47277,999,26479,.33350136E-2,.1213E-4,0
